ONEWEB-0492             
1 54114U 22138B   25081.29176526  .00000152  00000+0  34768-3 0  9993
2 54114  87.9224  34.7863 0001882  73.4441 286.6898 13.19727887117236
ONEWEB-0495             
1 54115U 22138C   25081.57292829  .00000166  00000+0  38268-3 0  9994
2 54115  87.9226  34.7416 0002547  72.0060 288.1350 13.19725203117256
ONEWEB-0497             
1 54116U 22138D   25081.58556761  .00000131  00000+0  29571-3 0  9993
2 54116  87.9220  34.7152 0001981  79.1053 281.0303 13.19725960117248
ONEWEB-0499             
1 54117U 22138E   25081.56819618  .00000127  00000+0  28555-3 0  9991
2 54117  87.9225  34.7322 0002238  87.1611 272.9777 13.19726958117251
ONEWEB-0500             
1 54118U 22138F   25081.57135314  .00000092  00000+0  19778-3 0  9995
2 54118  87.9223  34.7191 0001881  78.6651 281.4693 13.19726926117264
ONEWEB-0503             
1 54121U 22138J   25081.57608350  .00000163  00000+0  37423-3 0  9990
2 54121  87.9219  34.7036 0002000  91.2439 268.8923 13.19727773117255
